[{"COMMENT":"GENERATED VIA SPACETRACK.ORG API","ORIGINATOR":"18 SPCS","NORAD_CAT_ID":"45120","OBJECT_NAME":"VPM","OBJECT_TYPE":"PAYLOAD","CLASSIFICATION_TYPE":"U","INTLDES":"19071K","EPOCH":"2020-08-08 17:55:52","EPOCH_MICROSECONDS":"378464","MEAN_MOTION":"15.34292127","ECCENTRICITY":"0.0011019","INCLINATION":"51.6427","RA_OF_ASC_NODE":"110.1211","ARG_OF_PERICENTER":"241.1503","MEAN_ANOMALY":"118.8374","EPHEMERIS_TYPE":"0","ELEMENT_SET_NO":"999","REV_AT_EPOCH":"2904","BSTAR":"0.000093751","MEAN_MOTION_DOT":"0.00002784","MEAN_MOTION_DDOT":"0","FILE":"2798334","TLE_LINE0":"0 VPM","TLE_LINE1":"1 45120U 19071K   20221.74713401  .00002784  00000-0  93751-4 0  9994","TLE_LINE2":"2 45120  51.6427 110.1211 0011019 241.1503 118.8374 15.34292127 29047","OBJECT_ID":"2019-071K","OBJECT_NUMBER":"45120","SEMIMAJOR_AXIS":"6841.160","PERIOD":"93.854","APOGEE":"470.564","PERIGEE":"455.487","DECAYED":"0"},{"COMMENT":"GENERATED VIA SPACETRACK.ORG API","ORIGINATOR":"18 SPCS","NORAD_CAT_ID":"45120","OBJECT_NAME":"VPM","OBJECT_TYPE":"PAYLOAD","CLASSIFICATION_TYPE":"U","INTLDES":"19071K","EPOCH":"2020-08-08 21:03:27","EPOCH_MICROSECONDS":"548352","MEAN_MOTION":"15.34293093","ECCENTRICITY":"0.0010997","INCLINATION":"51.6428","RA_OF_ASC_NODE":"109.4909","ARG_OF_PERICENTER":"241.6969","MEAN_ANOMALY":"118.2904","EPHEMERIS_TYPE":"0","ELEMENT_SET_NO":"999","REV_AT_EPOCH":"2906","BSTAR":"0.000093436","MEAN_MOTION_DOT":"0.00002773","MEAN_MOTION_DDOT":"0","FILE":"2798367","TLE_LINE0":"0 VPM","TLE_LINE1":"1 45120U 19071K   20221.87740218 +.00002773 +00000-0 +93436-4 0  9992","TLE_LINE2":"2 45120 051.6428 109.4909 0010997 241.6969 118.2904 15.34293093029066","OBJECT_ID":"2019-071K","OBJECT_NUMBER":"45120","SEMIMAJOR_AXIS":"6841.158","PERIOD":"93.854","APOGEE":"470.546","PERIGEE":"455.499","DECAYED":"0"},{"COMMENT":"GENERATED VIA SPACETRACK.ORG API","ORIGINATOR":"18 SPCS","NORAD_CAT_ID":"45120","OBJECT_NAME":"VPM","OBJECT_TYPE":"PAYLOAD","CLASSIFICATION_TYPE":"U","INTLDES":"19071K","EPOCH":"2020-08-09 01:44:50","EPOCH_MICROSECONDS":"296704","MEAN_MOTION":"15.34294291","ECCENTRICITY":"0.0010979","INCLINATION":"51.6427","RA_OF_ASC_NODE":"108.5457","ARG_OF_PERICENTER":"242.3978","MEAN_ANOMALY":"117.589","EPHEMERIS_TYPE":"0","ELEMENT_SET_NO":"999","REV_AT_EPOCH":"2909","BSTAR":"0.000090917","MEAN_MOTION_DOT":"0.00002688","MEAN_MOTION_DDOT":"0","FILE":"2798784","TLE_LINE0":"0 VPM","TLE_LINE1":"1 45120U 19071K   20222.07280436 +.00002688 +00000-0 +90917-4 0  9992","TLE_LINE2":"2 45120 051.6427 108.5457 0010979 242.3978 117.5890 15.34294291029091","OBJECT_ID":"2019-071K","OBJECT_NUMBER":"45120","SEMIMAJOR_AXIS":"6841.154","PERIOD":"93.854","APOGEE":"470.530","PERIGEE":"455.508","DECAYED":"0"},{"COMMENT":"GENERATED VIA SPACETRACK.ORG API","ORIGINATOR":"18 SPCS","NORAD_CAT_ID":"45120","OBJECT_NAME":"VPM","OBJECT_TYPE":"PAYLOAD","CLASSIFICATION_TYPE":"U","INTLDES":"19071K","EPOCH":"2020-08-09 20:30:21","EPOCH_MICROSECONDS":"172608","MEAN_MOTION":"15.34298235","ECCENTRICITY":"0.0010998","INCLINATION":"51.6428","RA_OF_ASC_NODE":"104.7645","ARG_OF_PERICENTER":"245.2627","MEAN_ANOMALY":"114.7211","EPHEMERIS_TYPE":"0","ELEMENT_SET_NO":"999","REV_AT_EPOCH":"2921","BSTAR":"0.000083058","MEAN_MOTION_DOT":"0.00002423","MEAN_MOTION_DDOT":"0","FILE":"2798926","TLE_LINE0":"0 VPM","TLE_LINE1":"1 45120U 19071K   20222.85441172  .00002423  00000-0  83058-4 0  9999","TLE_LINE2":"2 45120  51.6428 104.7645 0010998 245.2627 114.7211 15.34298235 29215","OBJECT_ID":"2019-071K","OBJECT_NUMBER":"45120","SEMIMAJOR_AXIS":"6841.142","PERIOD":"93.853","APOGEE":"470.531","PERIGEE":"455.483","DECAYED":"0"},{"COMMENT":"GENERATED VIA SPACETRACK.ORG API","ORIGINATOR":"18 SPCS","NORAD_CAT_ID":"45120","OBJECT_NAME":"VPM","OBJECT_TYPE":"PAYLOAD","CLASSIFICATION_TYPE":"U","INTLDES":"19071K","EPOCH":"2020-08-09 22:04:08","EPOCH_MICROSECONDS":"741568","MEAN_MOTION":"15.34298537","ECCENTRICITY":"0.0010996","INCLINATION":"51.6428","RA_OF_ASC_NODE":"104.4494","ARG_OF_PERICENTER":"245.5179","MEAN_ANOMALY":"114.4657","EPHEMERIS_TYPE":"0","ELEMENT_SET_NO":"999","REV_AT_EPOCH":"2922","BSTAR":"0.000082202","MEAN_MOTION_DOT":"0.00002394","MEAN_MOTION_DDOT":"0","FILE":"2798970","TLE_LINE0":"0 VPM","TLE_LINE1":"1 45120U 19071K   20222.91954562 +.00002394 +00000-0 +82202-4 0  9995","TLE_LINE2":"2 45120 051.6428 104.4494 0010996 245.5179 114.4657 15.34298537029224","OBJECT_ID":"2019-071K","OBJECT_NUMBER":"45120","SEMIMAJOR_AXIS":"6841.141","PERIOD":"93.853","APOGEE":"470.529","PERIGEE":"455.484","DECAYED":"0"},{"COMMENT":"GENERATED VIA SPACETRACK.ORG API","ORIGINATOR":"18 SPCS","NORAD_CAT_ID":"45120","OBJECT_NAME":"VPM","OBJECT_TYPE":"PAYLOAD","CLASSIFICATION_TYPE":"U","INTLDES":"19071K","EPOCH":"2020-08-10 01:11:43","EPOCH_MICROSECONDS":"859616","MEAN_MOTION":"15.3429959","ECCENTRICITY":"0.0010983","INCLINATION":"51.6428","RA_OF_ASC_NODE":"103.8192","ARG_OF_PERICENTER":"245.9475","MEAN_ANOMALY":"114.0358","EPHEMERIS_TYPE":"0","ELEMENT_SET_NO":"999","REV_AT_EPOCH":"2924","BSTAR":"0.000083886","MEAN_MOTION_DOT":"0.00002451","MEAN_MOTION_DDOT":"0","FILE":"2799329","TLE_LINE0":"0 VPM","TLE_LINE1":"1 45120U 19071K   20223.04981319 +.00002451 +00000-0 +83886-4 0  9993","TLE_LINE2":"2 45120 051.6428 103.8192 0010983 245.9475 114.0358 15.34299590029247","OBJECT_ID":"2019-071K","OBJECT_NUMBER":"45120","SEMIMAJOR_AXIS":"6841.138","PERIOD":"93.853","APOGEE":"470.517","PERIGEE":"455.490","DECAYED":"0"},{"COMMENT":"GENERATED VIA SPACETRACK.ORG API","ORIGINATOR":"18 SPCS","NORAD_CAT_ID":"45120","OBJECT_NAME":"VPM","OBJECT_TYPE":"PAYLOAD","CLASSIFICATION_TYPE":"U","INTLDES":"19071K","EPOCH":"2020-08-10 19:57:14","EPOCH_MICROSECONDS":"522976","MEAN_MOTION":"15.34303848","ECCENTRICITY":"0.0010983","INCLINATION":"51.6428","RA_OF_ASC_NODE":"100.0379","ARG_OF_PERICENTER":"248.8039","MEAN_ANOMALY":"111.177","EPHEMERIS_TYPE":"0","ELEMENT_SET_NO":"999","REV_AT_EPOCH":"2936","BSTAR":"0.000080168","MEAN_MOTION_DOT":"0.00002326","MEAN_MOTION_DDOT":"0","FILE":"2799520","TLE_LINE0":"0 VPM","TLE_LINE1":"1 45120U 19071K   20223.83141809 +.00002326 +00000-0 +80168-4 0  9993","TLE_LINE2":"2 45120 051.6428 100.0379 0010983 248.8039 111.1770 15.34303848029362","OBJECT_ID":"2019-071K","OBJECT_NUMBER":"45120","SEMIMAJOR_AXIS":"6841.126","PERIOD":"93.853","APOGEE":"470.504","PERIGEE":"455.477","DECAYED":"0"},{"COMMENT":"GENERATED VIA SPACETRACK.ORG API","ORIGINATOR":"18 SPCS","NORAD_CAT_ID":"45120","OBJECT_NAME":"VPM","OBJECT_TYPE":"PAYLOAD","CLASSIFICATION_TYPE":"U","INTLDES":"19071K","EPOCH":"2020-08-11 02:12:24","EPOCH_MICROSECONDS":"692544","MEAN_MOTION":"15.34305776","ECCENTRICITY":"0.0010973","INCLINATION":"51.6429","RA_OF_ASC_NODE":"98.7776","ARG_OF_PERICENTER":"249.7296","MEAN_ANOMALY":"110.2507","EPHEMERIS_TYPE":"0","ELEMENT_SET_NO":"999","REV_AT_EPOCH":"2940","BSTAR":"0.00008443","MEAN_MOTION_DOT":"0.0000247","MEAN_MOTION_DDOT":"0","FILE":"2799664","TLE_LINE0":"0 VPM","TLE_LINE1":"1 45120U 19071K   20224.09195246  .00002470  00000-0  84430-4 0  9992","TLE_LINE2":"2 45120  51.6429  98.7776 0010973 249.7296 110.2507 15.34305776 29406","OBJECT_ID":"2019-071K","OBJECT_NUMBER":"45120","SEMIMAJOR_AXIS":"6841.120","PERIOD":"93.853","APOGEE":"470.492","PERIGEE":"455.478","DECAYED":"0"},{"COMMENT":"GENERATED VIA SPACETRACK.ORG API","ORIGINATOR":"18 SPCS","NORAD_CAT_ID":"45120","OBJECT_NAME":"VPM","OBJECT_TYPE":"PAYLOAD","CLASSIFICATION_TYPE":"U","INTLDES":"19071K","EPOCH":"2020-08-11 20:57:55","EPOCH_MICROSECONDS":"97568","MEAN_MOTION":"15.34310045","ECCENTRICITY":"0.0010959","INCLINATION":"51.6424","RA_OF_ASC_NODE":"94.9965","ARG_OF_PERICENTER":"252.6548","MEAN_ANOMALY":"107.3236","EPHEMERIS_TYPE":"0","ELEMENT_SET_NO":"999","REV_AT_EPOCH":"2952","BSTAR":"0.000087561","MEAN_MOTION_DOT":"0.00002576","MEAN_MOTION_DDOT":"0","FILE":"2800090","TLE_LINE0":"0 VPM","TLE_LINE1":"1 45120U 19071K   20224.87355437 +.00002576 +00000-0 +87561-4 0  9993","TLE_LINE2":"2 45120 051.6424 094.9965 0010959 252.6548 107.3236 15.34310045029520","OBJECT_ID":"2019-071K","OBJECT_NUMBER":"45120","SEMIMAJOR_AXIS":"6841.107","PERIOD":"93.853","APOGEE":"470.469","PERIGEE":"455.475","DECAYED":"0"},{"COMMENT":"GENERATED VIA SPACETRACK.ORG API","ORIGINATOR":"18 SPCS","NORAD_CAT_ID":"45120","OBJECT_NAME":"VPM","OBJECT_TYPE":"PAYLOAD","CLASSIFICATION_TYPE":"U","INTLDES":"19071K","EPOCH":"2020-08-12 01:39:17","EPOCH_MICROSECONDS":"674848","MEAN_MOTION":"15.34311529","ECCENTRICITY":"0.0010947","INCLINATION":"51.6424","RA_OF_ASC_NODE":"94.0513","ARG_OF_PERICENTER":"253.3796","MEAN_ANOMALY":"106.5984","EPHEMERIS_TYPE":"0","ELEMENT_SET_NO":"999","REV_AT_EPOCH":"2955","BSTAR":"0.00009361","MEAN_MOTION_DOT":"0.00002781","MEAN_MOTION_DDOT":"0","FILE":"2800566","TLE_LINE0":"0 VPM","TLE_LINE1":"1 45120U 19071K   20225.06895457 +.00002781 +00000-0 +93610-4 0  9996","TLE_LINE2":"2 45120 051.6424 094.0513 0010947 253.3796 106.5984 15.34311529029552","OBJECT_ID":"2019-071K","OBJECT_NUMBER":"45120","SEMIMAJOR_AXIS":"6841.103","PERIOD":"93.853","APOGEE":"470.457","PERIGEE":"455.479","DECAYED":"0"},{"COMMENT":"GENERATED VIA SPACETRACK.ORG API","ORIGINATOR":"18 SPCS","NORAD_CAT_ID":"45120","OBJECT_NAME":"VPM","OBJECT_TYPE":"PAYLOAD","CLASSIFICATION_TYPE":"U","INTLDES":"19071K","EPOCH":"2020-08-12 18:51:00","EPOCH_MICROSECONDS":"335520","MEAN_MOTION":"15.34316214","ECCENTRICITY":"0.0010971","INCLINATION":"51.6425","RA_OF_ASC_NODE":"90.5853","ARG_OF_PERICENTER":"255.9786","MEAN_ANOMALY":"103.9976","EPHEMERIS_TYPE":"0","ELEMENT_SET_NO":"999","REV_AT_EPOCH":"2966","BSTAR":"0.00010322","MEAN_MOTION_DOT":"0.00003106","MEAN_MOTION_DDOT":"0","FILE":"2800700","TLE_LINE0":"0 VPM","TLE_LINE1":"1 45120U 19071K   20225.78542055  .00003106  00000-0  10322-3 0  9998","TLE_LINE2":"2 45120  51.6425  90.5853 0010971 255.9786 103.9976 15.34316214 29665","OBJECT_ID":"2019-071K","OBJECT_NUMBER":"45120","SEMIMAJOR_AXIS":"6841.089","PERIOD":"93.852","APOGEE":"470.459","PERIGEE":"455.448","DECAYED":"0"}]